NORAD_CAT_ID,OBJECT_NAME,OBJECT_TYPE,EPOCH,MEAN_MOTION,ECCENTRICITY,INCLINATION,RA_OF_ASC_NODE,ARG_OF_PERICENTER,MEAN_ANOMALY,BSTAR,MEAN_MOTION_DOT,MEAN_MOTION_DDOT,TLE_LINE0,TLE_LINE1,TLE_LINE2,SEMIMAJOR_AXIS,PERIOD,APOGEE,PERIGEE,DECAYED
53852.0,STARLINK-4797,PAYLOAD,2023-01-02 06:25:31,15.088280599999996,0.0001899999999999,53.2178,107.56,48.8873,311.2283,0.00014369,1.999e-05,0.0,0 STARLINK-4797,1 53852U 22114AL  23002.26772530  .00001999  00000-0  14369-3 0  9996,2 53852  53.2178 107.5600 0001900  48.8873 311.2283 15.08828060 17015,6917.917,95.438,541.096,538.467,0.0
53852.0,STARLINK-4797,PAYLOAD,2023-01-02 09:36:17,15.08829956,0.0001675,53.2177,106.9657,51.5647,308.5495,0.00018637,2.679e-05,0.0,0 STARLINK-4797,1 53852U 22114AL  23002.40020335  .00002679  00000-0  18637-3 0  9999,2 53852  53.2177 106.9657 0001675  51.5647 308.5495 15.08829956 17578,6917.911,95.438,540.935,538.617,0.0
53852.0,STARLINK-4797,PAYLOAD,2023-01-02 15:57:49,15.08840955,0.000176,53.2177,105.7763,49.8836,310.231,0.00020936,3.046e-05,0.0,0 STARLINK-4797,1 53852U 22114AL  23002.66515789  .00003046  00000-0  20936-3 0  9993,2 53852  53.2177 105.7763 0001760  49.8836 310.2310 15.08840955 17071,6917.877,95.437,540.96,538.525,0.0
53852.0,STARLINK-4797,PAYLOAD,2023-01-02 23:54:46,15.08832112,0.0001681,53.2182,104.2892,51.8815,308.2328,0.00012139,1.644e-05,0.0,0 STARLINK-4797,1 53852U 22114AL  23002.99636702  .00001644  00000-0  12139-3 0  9996,2 53852  53.2182 104.2892 0001681  51.8815 308.2328 15.08832112 17124,6917.904,95.438,540.932,538.607,0.0
53852.0,STARLINK-4797,PAYLOAD,2023-01-03 12:37:51,15.08831624,0.0001727,53.2183,101.9114,55.3453,304.7702,0.00011045,1.47e-05,0.0,0 STARLINK-4797,1 53852U 22114AL  23003.52629230  .00001470  00000-0  11045-3 0  9996,2 53852  53.2183 101.9114 0001727  55.3453 304.7702 15.08831624 17746,6917.906,95.438,540.966,538.576,0.0
53852.0,STARLINK-4797,PAYLOAD,2023-01-04 12:28:37,15.08847558,0.0001682,53.2191,97.4517,65.9922,294.1246,0.00011492,1.542e-05,0.0,0 STARLINK-4797,1 53852U 22114AL  23004.51988204  .00001542  00000-0  11492-3 0  9991,2 53852  53.2191  97.4517 0001682  65.9922 294.1246 15.08847558 17354,6917.857,95.437,540.886,538.559,0.0
53852.0,STARLINK-4797,PAYLOAD,2023-01-05 12:19:24,15.08841911,0.0001448,53.2178,92.9908,58.5027,301.6106,0.00011804,1.591e-05,0.0,0 STARLINK-4797,1 53852U 22114AL  23005.51348141  .00001591  00000-0  11804-3 0  9993,2 53852  53.2178  92.9908 0001448  58.5027 301.6106 15.08841911 17500,6917.875,95.437,540.741,538.738,0.0
53852.0,STARLINK-4797,PAYLOAD,2023-01-05 15:30:10,15.08849379,0.0001530999999999,53.217,92.3933,64.4347,295.6804,8.562600000000001e-05,1.075e-05,0.0,0 STARLINK-4797,1 53852U 22114AL  23005.64595615  .00001075  00000-0  85626-4 0  9998,2 53852  53.2170  92.3933 0001531  64.4347 295.6804 15.08849379 18063,6917.852,95.437,540.776,538.658,0.0
53852.0,STARLINK-4797,PAYLOAD,2023-01-06 05:48:39,15.08838762,0.0001309,53.2176,89.719,66.6064,293.5066,-6.9229e-05,-1.389e-05,0.0,0 STARLINK-4797,1 53852U 22114AL  23006.24212740 -.00001389  00000-0 -69229-4 0  9991,2 53852  53.2176  89.7190 0001309  66.6064 293.5066 15.08838762 17618,6917.884,95.438,540.655,538.844,0.0
53852.0,STARLINK-4797,PAYLOAD,2023-01-06 15:20:58,15.08843887,0.0001591,53.2173,87.9351,75.5786,284.5382,-3.1929e-05,-7.96e-06,0.0,0 STARLINK-4797,1 53852U 22114AL  23006.63956175 -.00000796  00000-0 -31929-4 0  9998,2 53852  53.2173  87.9351 0001591  75.5786 284.5382 15.08843887 17678,6917.8690000000015,95.437,540.8340000000002,538.633,0.0
53852.0,STARLINK-4797,PAYLOAD,2023-01-07 08:50:14,15.08822367,0.0001585999999999,53.2179,84.6616,81.9159,278.2013,-8.4555e-05,-1.633e-05,0.0,0 STARLINK-4797,1 53852U 22114AL  23007.36822198 -.00001633  00000-0 -84555-4 0  9990,2 53852  53.2179  84.6616 0001586  81.9159 278.2013 15.08822367 17784,6917.934,95.439,540.896,538.702,0.0
53852.0,STARLINK-4797,PAYLOAD,2023-01-08 03:54:51,15.08834142,0.0001695,53.2177,81.0925,87.8388,272.2798,0.00011817,1.593e-05,0.0,0 STARLINK-4797,1 53852U 22114AL  23008.16309413  .00001593  00000-0  11817-3 0  9992,2 53852  53.2177  81.0925 0001695  87.8388 272.2798 15.08834142 17908,6917.898,95.438,540.936,538.591,0.0
53852.0,STARLINK-4797,PAYLOAD,2023-01-08 11:51:46,15.08843921,0.0001429,53.2175,79.6097,90.707,269.4086,0.00014778,2.065e-05,0.0,0 STARLINK-4797,1 53852U 22114AL  23008.49428620  .00002065  00000-0  14778-3 0  9994,2 53852  53.2175  79.6097 0001429  90.7070 269.4086 15.08843921 17953,6917.868,95.437,540.722,538.745,0.0
53852.0,STARLINK-4797,PAYLOAD,2023-01-08 21:24:05,15.08845763,0.0001109,53.2168,77.8256,87.2178,272.8941,0.00011906,1.608e-05,0.0,0 STARLINK-4797,1 53852U 22114AL  23008.89172685  .00001608  00000-0  11906-3 0  9997,2 53852  53.2168  77.8256 0001109  87.2178 272.8941 15.08845763 18558,6917.863,95.437,540.495,538.961,0.0
53852.0,STARLINK-4797,PAYLOAD,2023-01-08 22:59:28,15.08851363,0.0001029,53.2184,77.5292,87.0268,273.0842,9.3102e-06,-1.4e-06,0.0,0 STARLINK-4797,1 53852U 22114AL  23008.95796299 -.00000140  00000-0  93102-5 0  9998,2 53852  53.2184  77.5292 0001029  87.0268 273.0842 15.08851363 18569,6917.846,95.437,540.423,538.999,0.0
53852.0,STARLINK-4797,PAYLOAD,2023-01-10 08:22:34,15.08843208,0.0001099,53.2195,71.2853,96.7592,263.3525,8.1251e-06,-1.58e-06,0.0,0 STARLINK-4797,1 53852U 22114AL  23010.34901365 -.00000158  00000-0  81251-5 0  9997,2 53852  53.2195  71.2853 0001099  96.7592 263.3525 15.08843208 18232,6917.871,95.437,540.496,538.975,0.0
53852.0,STARLINK-4797,PAYLOAD,2023-01-10 11:33:20,15.08848956,0.0001323,53.2185,70.6895,80.545,279.5692,4.3238e-05,4e-06,0.0,0 STARLINK-4797,1 53852U 22114AL  23010.48148914  .00000400  00000-0  43238-4 0  9996,2 53852  53.2185  70.6895 0001323  80.5450 279.5692 15.08848956 18794,6917.853,95.437,540.633,538.803,0.0
53852.0,STARLINK-4797,PAYLOAD,2023-01-11 09:48:44,15.0884291,0.0001215,53.2186,66.5262,97.9512,262.1618,3.3997e-05,2.53e-06,0.0,0 STARLINK-4797,1 53852U 22114AL  23011.40885015  .00000253  00000-0  33997-4 0  9996,2 53852  53.2186  66.5262 0001215  97.9512 262.1618 15.08842910 18394,6917.871,95.437,540.577,538.896,0.0
53852.0,STARLINK-4797,PAYLOAD,2023-01-11 20:56:26,15.08836115,0.0001501,53.2165,64.4404,107.6551,252.4605,0.00010624,1.403e-05,0.0,0 STARLINK-4797,1 53852U 22114AL  23011.87253081  .00001403  00000-0  10624-3 0  9998,2 53852  53.2165  64.4404 0001501 107.6551 252.4605 15.08836115 19003,6917.892,95.438,540.7959999999998,538.719,0.0
53852.0,STARLINK-4797,PAYLOAD,2023-01-12 08:04:09,15.08835947,0.0001511,53.2182,62.3638,80.3254,279.7909,3.8409e-05,3.23e-06,0.0,0 STARLINK-4797,1 53852U 22114AL  23012.33621538  .00000323  00000-0  38409-4 0  9998,2 53852  53.2182  62.3638 0001511  80.3254 279.7909 15.08835947 18534,6917.893,95.438,540.803,538.712,0.0
53852.0,STARLINK-4797,PAYLOAD,2023-01-12 20:47:13,15.08845661,0.0001284,53.2179,59.9821,95.5925,264.5213,3.2616e-05,2.31e-06,0.0,0 STARLINK-4797,1 53852U 22114AL  23012.86612784  .00000231  00000-0  32616-4 0  9991,2 53852  53.2179  59.9821 0001284  95.5925 264.5213 15.08845661 19159,6917.863,95.437,540.616,538.84,0.0
53852.0,STARLINK-4797,PAYLOAD,2023-01-13 12:41:04,15.08847607,0.0001247,53.217,57.0067,93.4778,266.6357,4.3341e-05,4.02e-06,0.0,0 STARLINK-4797,1 53852U 22114AL  23013.52852684  .00000402  00000-0  43341-4 0  9997,2 53852  53.2170  57.0067 0001247  93.4778 266.6357 15.08847607 18718,6917.857,95.437,540.585,538.859,0.0
53852.0,STARLINK-4797,PAYLOAD,2023-01-14 06:10:19,15.08834278,0.000124,53.217,53.7345,95.5102,264.6032,5.9323e-05,6.56e-06,0.0,0 STARLINK-4797,1 53852U 22114AL  23014.25717563  .00000656  00000-0  59323-4 0  9992,2 53852  53.2170  53.7345 0001240  95.5102 264.6032 15.08834278 18827,6917.898,95.438,540.621,538.905,0.0
53852.0,STARLINK-4797,PAYLOAD,2023-01-15 02:50:21,15.08826242,0.0001489,53.2174,49.8729,95.4776,264.6386,-2.4708e-05,-6.81e-06,0.0,0 STARLINK-4797,1 53852U 22114AL  23015.11830740 -.00000681  00000-0 -24708-4 0  9990,2 53852  53.2174  49.8729 0001489  95.4776 264.6386 15.08826242 18952,6917.922,95.438,540.818,538.757,0.0
53852.0,STARLINK-4797,PAYLOAD,2023-01-15 12:22:39,15.08839572,0.0001368,53.2171,48.0879,84.5612,275.5536,-2.0855e-05,-6.2e-06,0.0,0 STARLINK-4797,1 53852U 22114AL  23015.51573819 -.00000620  00000-0 -20855-4 0  9997,2 53852  53.2171  48.0879 0001368  84.5612 275.5536 15.08839572 19016,6917.882,95.438,540.693,538.8,0.0
53852.0,STARLINK-4797,PAYLOAD,2023-01-15 18:44:12,15.08837169,0.0001375999999999,53.2183,46.8987,85.1658,274.9491,1.1543e-06,-2.7000000000000004e-06,0.0,0 STARLINK-4797,1 53852U 22114AL  23015.78070012 -.00000270  00000-0  11543-5 0  9998,2 53852  53.2183  46.8987 0001376  85.1658 274.9491 15.08837169 19597,6917.889,95.438,540.706,538.802,0.0
53852.0,STARLINK-4797,PAYLOAD,2023-01-16 05:51:53,15.08854753,0.0001317,53.2185,44.8142,77.3792,282.7347,0.00010691,1.415e-05,0.0,0 STARLINK-4797,1 53852U 22114AL  23016.24436777  .00001415  00000-0  10691-3 0  9996,2 53852  53.2185  44.8142 0001317  77.3792 282.7347 15.08854753 19121,6917.835,95.437,540.611,538.789,0.0
53852.0,STARLINK-4797,PAYLOAD,2023-01-16 07:27:16,15.08855937,0.0001322,53.2186,44.5169,77.3623,282.7517,0.00012172,1.651e-05,0.0,0 STARLINK-4797,1 53852U 22114AL  23016.31060659  .00001651  00000-0  12172-3 0  9994,2 53852  53.2186  44.5169 0001322  77.3623 282.7517 15.08855937 19671,6917.831999999999,95.437,540.611,538.7819999999999,0.0
53852.0,STARLINK-4797,PAYLOAD,2023-01-16 18:34:59,15.08837222,0.0001571999999999,53.2197,42.4426,104.7205,255.3962,2.0648000000000003e-05,4.1e-07,0.0,0 STARLINK-4797,1 53852U 22114AL  23016.77429697  .00000041  00000-0  20648-4 0  9995,2 53852  53.2197  42.4426 0001572 104.7205 255.3962 15.08837222 19200,6917.889,95.438,540.841,538.6659999999999,0.0
